{
  "type": "FeatureCollection",
  "features": [
    {
      "type": "Feature",
      "properties": {
        "name": "PROXIMA_COBERTURA - Sector 1",
        "status": "upcoming"
      },
      "geometry": {
        "type": "Polygon",
        "coordinates": [
          [
            [-61.56730027353472, -30.95095456555433],
            [-61.5667012998787, -30.9528082192354],
            [-61.5656709453819, -30.95233722491142],
            [-61.56617616329527, -30.95067307602344],
            [-61.56730027353472, -30.95095456555433]
          ]
        ]
      }
    },
    {
      "type": "Feature",
      "properties": {
        "name": "PROXIMA_COBERTURA - Sector 2",
        "status": "upcoming"
      },
      "geometry": {
        "type": "Polygon",
        "coordinates": [
          [
            [-61.53655777416142, -30.95715847962561],
            [-61.5408257832789, -30.95640674933339],
            [-61.54143652987038, -30.95904572287586],
            [-61.53720600530212, -30.9598481692556],
            [-61.53655777416142, -30.95715847962561]
          ]
        ]
      }
    },
    {
      "type": "Feature",
      "properties": {
        "name": "NO_COBERTURA - Sector 1",
        "status": "unavailable"
      },
      "geometry": {
        "type": "Polygon",
        "coordinates": [
          [
            [-61.54715131241331, -30.93802536339307],
            [-61.54678244271654, -30.93802332324211],
            [-61.54666519516523, -30.93767669829316],
            [-61.54590543689395, -30.93781671816647],
            [-61.54544122787613, -30.93587039214167],
            [-61.54689739312005, -30.93559965290268],
            [-61.54746553220492, -30.93788114927802],
            [-61.54714766373407, -30.93802859991374],
            [-61.54726121595667, -30.93846792640277],
            [-61.54715131241331, -30.93802536339307]
          ]
        ]
      }
    },
    {
      "type": "Feature",
      "properties": {
        "name": "NO_COBERTURA - Sector 2",
        "status": "unavailable"
      },
      "geometry": {
        "type": "Polygon",
        "coordinates": [
          [
            [-61.54515207664281, -30.93384322740935],
            [-61.54558141067558, -30.93346695337653],
            [-61.54580854437131, -30.93304508565553],
            [-61.54632703301763, -30.93186015526472],
            [-61.54647913516722, -30.93182452104799],
            [-61.54684375052981, -30.93122609948975],
            [-61.54779044386022, -30.93085838330884],
            [-61.55168829473859, -30.93210796304671],
            [-61.55134602511731, -30.93287887684984],
            [-61.55132441552059, -30.93303006639089],
            [-61.54506012774074, -30.93415690912866],
            [-61.54515207664281, -30.93384322740935]
          ]
        ]
      }
    },
    {
      "type": "Feature",
      "properties": {
        "name": "NO_COBERTURA - Sector 3",
        "status": "unavailable"
      },
      "geometry": {
        "type": "Polygon",
        "coordinates": [
          [
            [-61.5546086266698, -30.93313012308219],
            [-61.55301138828371, -30.93342872180247],
            [-61.55295149304614, -30.93339076053959],
            [-61.55278901864682, -30.9327634518498],
            [-61.55445271173571, -30.93247436617279],
            [-61.5546086266698, -30.93313012308219]
          ]
        ]
      }
    }
  ]
}